STARLINK-36121          
1 66940U 25286R   26162.64266323  .00027011  00000+0  80770-3 0  9992
2 66940  53.1605 281.1807 0001053 110.6652 249.4464 15.34399931 29814
STARLINK-35879          
1 66960U 25288B   26161.84646275  .00019627  00000+0  72088-3 0  9992
2 66960  42.9976 217.4301 0001618 274.3441  85.7225 15.27579211 29533
STARLINK-36107          
1 66979U 25288W   26162.59013857  .00020404  00000+0  74894-3 0  9991
2 66979  43.0018 213.5478 0000102 298.4527  61.6315 15.27579306 29643
2025-292J               
1 67001U 25292J   26162.72379447  .00003656  00000+0  25112-3 0  9997
2 67001  97.6352 238.5769 0015428  20.3741 339.8099 15.06500746 27627
STARLINK-36184          
1 67021U 25293U   26162.54294898  .00001330  00000+0  11919-3 0  9993
2 67021  70.0005 217.9137 0003826 269.1121  90.9599 14.98333516 28948
STARLINK-35786          
1 67040U 25294L   26161.91007127  .00020228  00000+0  74216-3 0  9998
2 67040  43.0056 231.8315 0001827 273.6478  86.4165 15.27597753 29052
HULIANWANG DIGUI-119    
1 67059U 25295A   26162.89401802 -.00000092  00000+0  68316-4 0  9998
2 67059  50.0045  44.7668 0000986  63.6953 296.4021 13.29328914 24791
STARLINK-36035          
1 67082U 25298H   26162.31652985  .00000280  00000+0  31281-4 0  9993
2 67082  70.0008 138.3194 0003910 263.4519  96.6195 14.98330912 27243
STARLINK-36200          
1 67101U 25298AC  26162.95510417  .00002605  00000+0  22600-3 0  9995
2 67101  70.0006 136.9313 0003098 266.9532  93.1272 14.98336643 27335
STARLINK-36217          
1 67120U 25299U   26162.26427840  .00013193  00000+0  48764-3 0  9991
2 67120  43.0098   0.8421 0005915 264.9996  95.0180 15.27600613 27421
KUIPER-00186            
1 67140U 25301H   26162.91718028  .00000314  00000+0  70265-4 0  9993
2 67140  51.9040  21.4572 0000758 115.5943 244.5098 14.79930239 27512
KUIPER-00265            
1 67159U 25301AC  26162.87533505  .00003290  00000+0  46035-3 0  9996
2 67159  51.9033  29.1469 0000689  95.8101 264.2940 14.79932109 27437
STARLINK-35793          
1 67179U 25303S   26162.43887583  .00018927  00000+0  69602-3 0  9998
2 67179  43.0018 141.2000 0000972 287.2519  72.8226 15.27557966 27074
STARLINK-36267          
1 67198U 25304G   26162.75650622  .00001349  00000+0  12081-3 0  9996
2 67198  70.0012 297.3337 0002909 268.6888  91.3937 14.98334293 27943
STARLINK-36216          
1 67217U 25304AB  26162.75249743  .00001151  00000+0  10425-3 0  9997
2 67217  70.0016 297.3143 0002923 266.9404  93.1421 14.98333965 27960
FENGYUN 4C              
1 67246U 25312A   26162.86342372  .00000000  00000+0  00000+0 0  9998
2 67246   0.0151  70.9384 0000542 136.1984 136.8926  1.00268868  1722
