[ {"OBJECT_NAME": "STARLINK-36121", "OBJECT_ID": "2025-286R", "EPOCH": "2026-06-11T15:25:26.103072", "MEAN_MOTION": 15.34399931, "ECCENTRICITY": 0.00010533, "INCLINATION": 53.1605, "RA_OF_ASC_NODE": 281.1807, "ARG_OF_PERICENTER": 110.6652, "MEAN_ANOMALY": 249.4464, "EPHEMERIS_TYPE": 0, "CLASSIFICATION_TYPE": "U", "NORAD_CAT_ID": 66940, "ELEMENT_SET_NO": 999, "REV_AT_EPOCH": 2981, "BSTAR": 0.00080769531, "MEAN_MOTION_DOT": 0.00027011, "MEAN_MOTION_DDOT": 0}, {"OBJECT_NAME": "STARLINK-35879", "OBJECT_ID": "2025-288B", "EPOCH": "2026-06-10T20:18:54.381600", "MEAN_MOTION": 15.27579211, "ECCENTRICITY": 0.00016188, "INCLINATION": 42.9976, "RA_OF_ASC_NODE": 217.4301, "ARG_OF_PERICENTER": 274.3441, "MEAN_ANOMALY": 85.7225, "EPHEMERIS_TYPE": 0, "CLASSIFICATION_TYPE": "U", "NORAD_CAT_ID": 66960, "ELEMENT_SET_NO": 999, "REV_AT_EPOCH": 2953, "BSTAR": 0.00072087866, "MEAN_MOTION_DOT": 0.00019627, "MEAN_MOTION_DDOT": 0}, {"OBJECT_NAME": "STARLINK-36107", "OBJECT_ID": "2025-288W", "EPOCH": "2026-06-11T14:09:47.972448", "MEAN_MOTION": 15.27579306, "ECCENTRICITY": 1.029e-05, "INCLINATION": 43.0018, "RA_OF_ASC_NODE": 213.5478, "ARG_OF_PERICENTER": 298.4527, "MEAN_ANOMALY": 61.6315, "EPHEMERIS_TYPE": 0, "CLASSIFICATION_TYPE": "U", "NORAD_CAT_ID": 66979, "ELEMENT_SET_NO": 999, "REV_AT_EPOCH": 2964, "BSTAR": 0.00074894484, "MEAN_MOTION_DOT": 0.00020404, "MEAN_MOTION_DDOT": 0}, {"OBJECT_NAME": "2025-292J", "OBJECT_ID": "2025-292J", "EPOCH": "2026-06-11T17:22:15.842208", "MEAN_MOTION": 15.06500746, "ECCENTRICITY": 0.00154284, "INCLINATION": 97.6352, "RA_OF_ASC_NODE": 238.5769, "ARG_OF_PERICENTER": 20.3741, "MEAN_ANOMALY": 339.8099, "EPHEMERIS_TYPE": 0, "CLASSIFICATION_TYPE": "U", "NORAD_CAT_ID": 67001, "ELEMENT_SET_NO": 999, "REV_AT_EPOCH": 2762, "BSTAR": 0.00025112428, "MEAN_MOTION_DOT": 3.656e-05, "MEAN_MOTION_DDOT": 0}, {"OBJECT_NAME": "STARLINK-36184", "OBJECT_ID": "2025-293U", "EPOCH": "2026-06-11T13:01:50.791872", "MEAN_MOTION": 14.98333516, "ECCENTRICITY": 0.0003826, "INCLINATION": 70.0005, "RA_OF_ASC_NODE": 217.9137, "ARG_OF_PERICENTER": 269.1121, "MEAN_ANOMALY": 90.9599, "EPHEMERIS_TYPE": 0, "CLASSIFICATION_TYPE": "U", "NORAD_CAT_ID": 67021, "ELEMENT_SET_NO": 999, "REV_AT_EPOCH": 2894, "BSTAR": 0.00011919, "MEAN_MOTION_DOT": 1.33e-05, "MEAN_MOTION_DDOT": 0}, {"OBJECT_NAME": "STARLINK-35786", "OBJECT_ID": "2025-294L", "EPOCH": "2026-06-10T21:50:30.157728", "MEAN_MOTION": 15.27597753, "ECCENTRICITY": 0.00018276, "INCLINATION": 43.0056, "RA_OF_ASC_NODE": 231.8315, "ARG_OF_PERICENTER": 273.6478, "MEAN_ANOMALY": 86.4165, "EPHEMERIS_TYPE": 0, "CLASSIFICATION_TYPE": "U", "NORAD_CAT_ID": 67040, "ELEMENT_SET_NO": 999, "REV_AT_EPOCH": 2905, "BSTAR": 0.00074216307, "MEAN_MOTION_DOT": 0.00020228, "MEAN_MOTION_DDOT": 0}, {"OBJECT_NAME": "HULIANWANG DIGUI-119", "OBJECT_ID": "2025-295A", "EPOCH": "2026-06-11T21:27:23.156928", "MEAN_MOTION": 13.29328914, "ECCENTRICITY": 9.869e-05, "INCLINATION": 50.0045, "RA_OF_ASC_NODE": 44.7668, "ARG_OF_PERICENTER": 63.6953, "MEAN_ANOMALY": 296.4021, "EPHEMERIS_TYPE": 0, "CLASSIFICATION_TYPE": "U", "NORAD_CAT_ID": 67059, "ELEMENT_SET_NO": 999, "REV_AT_EPOCH": 2479, "BSTAR": 6.8316239e-05, "MEAN_MOTION_DOT": -9.2e-07, "MEAN_MOTION_DDOT": 0}, {"OBJECT_NAME": "STARLINK-36035", "OBJECT_ID": "2025-298H", "EPOCH": "2026-06-11T07:35:48.179040", "MEAN_MOTION": 14.98330912, "ECCENTRICITY": 0.000391, "INCLINATION": 70.0008, "RA_OF_ASC_NODE": 138.3194, "ARG_OF_PERICENTER": 263.4519, "MEAN_ANOMALY": 96.6195, "EPHEMERIS_TYPE": 0, "CLASSIFICATION_TYPE": "U", "NORAD_CAT_ID": 67082, "ELEMENT_SET_NO": 999, "REV_AT_EPOCH": 2724, "BSTAR": 3.1281e-05, "MEAN_MOTION_DOT": 2.8e-06, "MEAN_MOTION_DDOT": 0}, {"OBJECT_NAME": "STARLINK-36200", "OBJECT_ID": "2025-298AC", "EPOCH": "2026-06-11T22:55:21.000288", "MEAN_MOTION": 14.98336643, "ECCENTRICITY": 0.00030981, "INCLINATION": 70.0006, "RA_OF_ASC_NODE": 136.9313, "ARG_OF_PERICENTER": 266.9532, "MEAN_ANOMALY": 93.1272, "EPHEMERIS_TYPE": 0, "CLASSIFICATION_TYPE": "U", "NORAD_CAT_ID": 67101, "ELEMENT_SET_NO": 999, "REV_AT_EPOCH": 2733, "BSTAR": 0.0002259996, "MEAN_MOTION_DOT": 2.605e-05, "MEAN_MOTION_DDOT": 0}, {"OBJECT_NAME": "STARLINK-36217", "OBJECT_ID": "2025-299U", "EPOCH": "2026-06-11T06:20:33.653760", "MEAN_MOTION": 15.27600613, "ECCENTRICITY": 0.0005915, "INCLINATION": 43.0098, "RA_OF_ASC_NODE": 0.8421, "ARG_OF_PERICENTER": 264.9996, "MEAN_ANOMALY": 95.018, "EPHEMERIS_TYPE": 0, "CLASSIFICATION_TYPE": "U", "NORAD_CAT_ID": 67120, "ELEMENT_SET_NO": 999, "REV_AT_EPOCH": 2742, "BSTAR": 0.00048764, "MEAN_MOTION_DOT": 0.00013193, "MEAN_MOTION_DDOT": 0}, {"OBJECT_NAME": "KUIPER-00186", "OBJECT_ID": "2025-301H", "EPOCH": "2026-06-11T22:00:44.376192", "MEAN_MOTION": 14.79930239, "ECCENTRICITY": 7.587e-05, "INCLINATION": 51.904, "RA_OF_ASC_NODE": 21.4572, "ARG_OF_PERICENTER": 115.5943, "MEAN_ANOMALY": 244.5098, "EPHEMERIS_TYPE": 0, "CLASSIFICATION_TYPE": "U", "NORAD_CAT_ID": 67140, "ELEMENT_SET_NO": 999, "REV_AT_EPOCH": 2751, "BSTAR": 7.0265125e-05, "MEAN_MOTION_DOT": 3.14e-06, "MEAN_MOTION_DDOT": 0}, {"OBJECT_NAME": "KUIPER-00265", "OBJECT_ID": "2025-301AC", "EPOCH": "2026-06-11T21:00:28.948320", "MEAN_MOTION": 14.79932109, "ECCENTRICITY": 6.895e-05, "INCLINATION": 51.9033, "RA_OF_ASC_NODE": 29.1469, "ARG_OF_PERICENTER": 95.8101, "MEAN_ANOMALY": 264.294, "EPHEMERIS_TYPE": 0, "CLASSIFICATION_TYPE": "U", "NORAD_CAT_ID": 67159, "ELEMENT_SET_NO": 999, "REV_AT_EPOCH": 2743, "BSTAR": 0.00046035061, "MEAN_MOTION_DOT": 3.29e-05, "MEAN_MOTION_DDOT": 0}, {"OBJECT_NAME": "STARLINK-35793", "OBJECT_ID": "2025-303S", "EPOCH": "2026-06-11T10:31:58.871712", "MEAN_MOTION": 15.27557966, "ECCENTRICITY": 9.72e-05, "INCLINATION": 43.0018, "RA_OF_ASC_NODE": 141.2, "ARG_OF_PERICENTER": 287.2519, "MEAN_ANOMALY": 72.8226, "EPHEMERIS_TYPE": 0, "CLASSIFICATION_TYPE": "U", "NORAD_CAT_ID": 67179, "ELEMENT_SET_NO": 999, "REV_AT_EPOCH": 2707, "BSTAR": 0.00069602, "MEAN_MOTION_DOT": 0.00018927, "MEAN_MOTION_DDOT": 0}, {"OBJECT_NAME": "STARLINK-36267", "OBJECT_ID": "2025-304G", "EPOCH": "2026-06-11T18:09:22.137408", "MEAN_MOTION": 14.98334293, "ECCENTRICITY": 0.00029093, "INCLINATION": 70.0012, "RA_OF_ASC_NODE": 297.3337, "ARG_OF_PERICENTER": 268.6888, "MEAN_ANOMALY": 91.3937, "EPHEMERIS_TYPE": 0, "CLASSIFICATION_TYPE": "U", "NORAD_CAT_ID": 67198, "ELEMENT_SET_NO": 999, "REV_AT_EPOCH": 2794, "BSTAR": 0.00012080755, "MEAN_MOTION_DOT": 1.349e-05, "MEAN_MOTION_DDOT": 0}, {"OBJECT_NAME": "STARLINK-36216", "OBJECT_ID": "2025-304AB", "EPOCH": "2026-06-11T18:03:35.777952", "MEAN_MOTION": 14.98333965, "ECCENTRICITY": 0.00029235, "INCLINATION": 70.0016, "RA_OF_ASC_NODE": 297.3143, "ARG_OF_PERICENTER": 266.9404, "MEAN_ANOMALY": 93.1421, "EPHEMERIS_TYPE": 0, "CLASSIFICATION_TYPE": "U", "NORAD_CAT_ID": 67217, "ELEMENT_SET_NO": 999, "REV_AT_EPOCH": 2796, "BSTAR": 0.00010424668, "MEAN_MOTION_DOT": 1.151e-05, "MEAN_MOTION_DDOT": 0}, {"OBJECT_NAME": "FENGYUN 4C", "OBJECT_ID": "2025-312A", "EPOCH": "2026-06-11T20:43:19.809408", "MEAN_MOTION": 1.00268868, "ECCENTRICITY": 5.423e-05, "INCLINATION": 0.0151, "RA_OF_ASC_NODE": 70.9384, "ARG_OF_PERICENTER": 136.1984, "MEAN_ANOMALY": 136.8926, "EPHEMERIS_TYPE": 0, "CLASSIFICATION_TYPE": "U", "NORAD_CAT_ID": 67246, "ELEMENT_SET_NO": 999, "REV_AT_EPOCH": 172, "BSTAR": 0, "MEAN_MOTION_DOT": 0, "MEAN_MOTION_DDOT": 0}]